ONEWEB-0340             
1 49206U 21083W   26126.32554901 -.00000077  00000+0 -22814-3 0  9996
2 49206  87.9188 343.7832 0001769  89.5740 270.5595 13.18682953224456
ONEWEB-0341             
1 49207U 21083X   26126.33230175 -.00000166  00000+0 -45455-3 0  9997
2 49207  87.9182 343.7881 0001313  91.1476 268.9807 13.18685391224473
ONEWEB-0342             
1 49208U 21083Y   26126.38161362  .00000125  00000+0  27603-3 0  9992
2 49208  87.9151 282.7769 0001775  92.9688 267.1648 13.20771166231261
ONEWEB-0343             
1 49209U 21083Z   26126.34072242 -.00000101  00000+0 -28934-3 0  9991
2 49209  87.9184 343.7836 0001633  71.9369 288.1941 13.18683142224520
ONEWEB-0344             
1 49210U 21083AA  26126.60306453 -.00000100  00000+0 -30905-3 0  9996
2 49210  87.8940 328.5303 0001409  93.5157 266.6134 13.13471428225430
ONEWEB-0345             
1 49211U 21083AB  26126.51840185 -.00000210  00000+0 -61072-3 0  9993
2 49211  87.8958 328.5215 0001416  91.0780 269.0511 13.13471602225435
ONEWEB-0346             
1 49212U 21083AC  26126.33735385 -.00000107  00000+0 -30454-3 0  9994
2 49212  87.9176 343.7873 0002123 102.7516 257.3854 13.18683000224465
ONEWEB-0348             
1 49213U 21083AD  26126.37212567  .00001102  00000+0  26787-2 0  9998
2 49213  87.9157 282.7824 0001766 114.1333 245.9985 13.20778237231296
ONEWEB-0350             
1 49214U 21083AE  26126.60389823 -.00000095  00000+0 -29554-3 0  9993
2 49214  87.8963 328.5056 0001441  95.4192 264.7102 13.13470694225472
ONEWEB-0351             
1 49215U 21083AF  26126.36563418  .00003134  00000+0  76700-2 0  9990
2 49215  87.9151 282.7808 0001257  72.0208 288.1062 13.20801801231257
ONEWEB-0352             
1 49216U 21083AG  26126.50823912 -.00000264  00000+0 -75905-3 0  9995
2 49216  87.8953 328.5369 0001640  74.4712 285.6598 13.13468587225554
ONEWEB-0354             
1 49217U 21083AH  26125.86076495  .00000059  00000+0  11376-3 0  9992
2 49217  87.9155 282.8817 0001622 109.3070 250.8239 13.20769963231222
ONEWEB-0355             
1 49218U 21083AJ  26126.30864762  .00000208  00000+0  53580-3 0  9994
2 49218  87.8938 328.5818 0001541  83.7470 276.3835 13.13470700225407
ONEWEB-0357             
1 49219U 21083AK  26126.38792255 -.00000135  00000+0 -36286-3 0  9995
2 49219  87.9154 282.7709 0001702  91.6155 268.5173 13.20768703231299
ONEWEB-0332             
1 49279U 21090A   26126.42997262 -.00000174  00000+0 -50277-3 0  9998
2 49279  87.8928 298.0416 0001886  86.3273 273.8073 13.14502445222091
ONEWEB-0347             
1 49280U 21090B   26126.37843780  .00000126  00000+0  27690-3 0  9997
2 49280  87.9153 282.7813 0002021  92.6516 267.4849 13.20774368225520
