[{"OBJECT_NAME":"ONEWEB-0340","OBJECT_ID":"2021-083W","EPOCH":"2026-05-06T07:48:47.434464","MEAN_MOTION":13.18682953,"ECCENTRICITY":0.0001769,"INCLINATION":87.9188,"RA_OF_ASC_NODE":343.7832,"ARG_OF_PERICENTER":89.574,"MEAN_ANOMALY":270.5595,"EPHEMERIS_TYPE":0,"CLASSIFICATION_TYPE":"U","NORAD_CAT_ID":49206,"ELEMENT_SET_NO":999,"REV_AT_EPOCH":22445,"BSTAR":-0.00022814000000000002,"MEAN_MOTION_DOT":-7.7e-07,"MEAN_MOTION_DDOT":0.0},{"OBJECT_NAME":"ONEWEB-0341","OBJECT_ID":"2021-083X","EPOCH":"2026-05-06T07:58:30.871200","MEAN_MOTION":13.18685391,"ECCENTRICITY":0.0001313,"INCLINATION":87.9182,"RA_OF_ASC_NODE":343.7881,"ARG_OF_PERICENTER":91.1476,"MEAN_ANOMALY":268.9807,"EPHEMERIS_TYPE":0,"CLASSIFICATION_TYPE":"U","NORAD_CAT_ID":49207,"ELEMENT_SET_NO":999,"REV_AT_EPOCH":22447,"BSTAR":-0.00045455,"MEAN_MOTION_DOT":-1.66e-06,"MEAN_MOTION_DDOT":0.0},{"OBJECT_NAME":"ONEWEB-0342","OBJECT_ID":"2021-083Y","EPOCH":"2026-05-06T09:09:31.416768","MEAN_MOTION":13.20771166,"ECCENTRICITY":0.0001775,"INCLINATION":87.9151,"RA_OF_ASC_NODE":282.7769,"ARG_OF_PERICENTER":92.9688,"MEAN_ANOMALY":267.1648,"EPHEMERIS_TYPE":0,"CLASSIFICATION_TYPE":"U","NORAD_CAT_ID":49208,"ELEMENT_SET_NO":999,"REV_AT_EPOCH":23126,"BSTAR":0.00027603,"MEAN_MOTION_DOT":1.25e-06,"MEAN_MOTION_DDOT":0.0},{"OBJECT_NAME":"ONEWEB-0343","OBJECT_ID":"2021-083Z","EPOCH":"2026-05-06T08:10:38.417088","MEAN_MOTION":13.18683142,"ECCENTRICITY":0.0001633,"INCLINATION":87.9184,"RA_OF_ASC_NODE":343.7836,"ARG_OF_PERICENTER":71.9369,"MEAN_ANOMALY":288.1941,"EPHEMERIS_TYPE":0,"CLASSIFICATION_TYPE":"U","NORAD_CAT_ID":49209,"ELEMENT_SET_NO":999,"REV_AT_EPOCH":22452,"BSTAR":-0.00028934,"MEAN_MOTION_DOT":-1.01e-06,"MEAN_MOTION_DDOT":0.0},{"OBJECT_NAME":"ONEWEB-0344","OBJECT_ID":"2021-083AA","EPOCH":"2026-05-06T14:28:24.775392","MEAN_MOTION":13.13471428,"ECCENTRICITY":0.0001409,"INCLINATION":87.894,"RA_OF_ASC_NODE":328.5303,"ARG_OF_PERICENTER":93.5157,"MEAN_ANOMALY":266.6134,"EPHEMERIS_TYPE":0,"CLASSIFICATION_TYPE":"U","NORAD_CAT_ID":49210,"ELEMENT_SET_NO":999,"REV_AT_EPOCH":22543,"BSTAR":-0.00030905,"MEAN_MOTION_DOT":-1e-06,"MEAN_MOTION_DDOT":0.0},{"OBJECT_NAME":"ONEWEB-0345","OBJECT_ID":"2021-083AB","EPOCH":"2026-05-06T12:26:29.919840","MEAN_MOTION":13.13471602,"ECCENTRICITY":0.0001416,"INCLINATION":87.8958,"RA_OF_ASC_NODE":328.5215,"ARG_OF_PERICENTER":91.078,"MEAN_ANOMALY":269.0511,"EPHEMERIS_TYPE":0,"CLASSIFICATION_TYPE":"U","NORAD_CAT_ID":49211,"ELEMENT_SET_NO":999,"REV_AT_EPOCH":22543,"BSTAR":-0.00061072,"MEAN_MOTION_DOT":-2.1e-06,"MEAN_MOTION_DDOT":0.0},{"OBJECT_NAME":"ONEWEB-0346","OBJECT_ID":"2021-083AC","EPOCH":"2026-05-06T08:05:47.372640","MEAN_MOTION":13.18683,"ECCENTRICITY":0.0002123,"INCLINATION":87.9176,"RA_OF_ASC_NODE":343.7873,"ARG_OF_PERICENTER":102.7516,"MEAN_ANOMALY":257.3854,"EPHEMERIS_TYPE":0,"CLASSIFICATION_TYPE":"U","NORAD_CAT_ID":49212,"ELEMENT_SET_NO":999,"REV_AT_EPOCH":22446,"BSTAR":-0.00030454,"MEAN_MOTION_DOT":-1.07e-06,"MEAN_MOTION_DDOT":0.0},{"OBJECT_NAME":"ONEWEB-0348","OBJECT_ID":"2021-083AD","EPOCH":"2026-05-06T08:55:51.657888","MEAN_MOTION":13.20778237,"ECCENTRICITY":0.0001766,"INCLINATION":87.9157,"RA_OF_ASC_NODE":282.7824,"ARG_OF_PERICENTER":114.1333,"MEAN_ANOMALY":245.9985,"EPHEMERIS_TYPE":0,"CLASSIFICATION_TYPE":"U","NORAD_CAT_ID":49213,"ELEMENT_SET_NO":999,"REV_AT_EPOCH":23129,"BSTAR":0.0026787,"MEAN_MOTION_DOT":1.102e-05,"MEAN_MOTION_DDOT":0.0},{"OBJECT_NAME":"ONEWEB-0350","OBJECT_ID":"2021-083AE","EPOCH":"2026-05-06T14:29:36.807072","MEAN_MOTION":13.13470694,"ECCENTRICITY":0.0001441,"INCLINATION":87.8963,"RA_OF_ASC_NODE":328.5056,"ARG_OF_PERICENTER":95.4192,"MEAN_ANOMALY":264.7102,"EPHEMERIS_TYPE":0,"CLASSIFICATION_TYPE":"U","NORAD_CAT_ID":49214,"ELEMENT_SET_NO":999,"REV_AT_EPOCH":22547,"BSTAR":-0.00029554,"MEAN_MOTION_DOT":-9.5e-07,"MEAN_MOTION_DDOT":0.0},{"OBJECT_NAME":"ONEWEB-0351","OBJECT_ID":"2021-083AF","EPOCH":"2026-05-06T08:46:30.793152","MEAN_MOTION":13.20801801,"ECCENTRICITY":0.0001257,"INCLINATION":87.9151,"RA_OF_ASC_NODE":282.7808,"ARG_OF_PERICENTER":72.0208,"MEAN_ANOMALY":288.1062,"EPHEMERIS_TYPE":0,"CLASSIFICATION_TYPE":"U","NORAD_CAT_ID":49215,"ELEMENT_SET_NO":999,"REV_AT_EPOCH":23125,"BSTAR":0.007670000000000001,"MEAN_MOTION_DOT":3.134e-05,"MEAN_MOTION_DDOT":0.0},{"OBJECT_NAME":"ONEWEB-0352","OBJECT_ID":"2021-083AG","EPOCH":"2026-05-06T12:11:51.859968","MEAN_MOTION":13.13468587,"ECCENTRICITY":0.000164,"INCLINATION":87.8953,"RA_OF_ASC_NODE":328.5369,"ARG_OF_PERICENTER":74.4712,"MEAN_ANOMALY":285.6598,"EPHEMERIS_TYPE":0,"CLASSIFICATION_TYPE":"U","NORAD_CAT_ID":49216,"ELEMENT_SET_NO":999,"REV_AT_EPOCH":22555,"BSTAR":-0.00075905,"MEAN_MOTION_DOT":-2.64e-06,"MEAN_MOTION_DDOT":0.0},{"OBJECT_NAME":"ONEWEB-0354","OBJECT_ID":"2021-083AH","EPOCH":"2026-05-05T20:39:30.091680","MEAN_MOTION":13.20769963,"ECCENTRICITY":0.0001622,"INCLINATION":87.9155,"RA_OF_ASC_NODE":282.8817,"ARG_OF_PERICENTER":109.307,"MEAN_ANOMALY":250.8239,"EPHEMERIS_TYPE":0,"CLASSIFICATION_TYPE":"U","NORAD_CAT_ID":49217,"ELEMENT_SET_NO":999,"REV_AT_EPOCH":23122,"BSTAR":0.00011376000000000001,"MEAN_MOTION_DOT":5.9e-07,"MEAN_MOTION_DDOT":0.0},{"OBJECT_NAME":"ONEWEB-0355","OBJECT_ID":"2021-083AJ","EPOCH":"2026-05-06T07:24:27.154368","MEAN_MOTION":13.134707,"ECCENTRICITY":0.0001541,"INCLINATION":87.8938,"RA_OF_ASC_NODE":328.5818,"ARG_OF_PERICENTER":83.747,"MEAN_ANOMALY":276.3835,"EPHEMERIS_TYPE":0,"CLASSIFICATION_TYPE":"U","NORAD_CAT_ID":49218,"ELEMENT_SET_NO":999,"REV_AT_EPOCH":22540,"BSTAR":0.0005358,"MEAN_MOTION_DOT":2.08e-06,"MEAN_MOTION_DDOT":0.0},{"OBJECT_NAME":"ONEWEB-0357","OBJECT_ID":"2021-083AK","EPOCH":"2026-05-06T09:18:36.508320","MEAN_MOTION":13.20768703,"ECCENTRICITY":0.0001702,"INCLINATION":87.9154,"RA_OF_ASC_NODE":282.7709,"ARG_OF_PERICENTER":91.6155,"MEAN_ANOMALY":268.5173,"EPHEMERIS_TYPE":0,"CLASSIFICATION_TYPE":"U","NORAD_CAT_ID":49219,"ELEMENT_SET_NO":999,"REV_AT_EPOCH":23129,"BSTAR":-0.00036286,"MEAN_MOTION_DOT":-1.35e-06,"MEAN_MOTION_DDOT":0.0},{"OBJECT_NAME":"ONEWEB-0332","OBJECT_ID":"2021-090A","EPOCH":"2026-05-06T10:19:09.634368","MEAN_MOTION":13.14502445,"ECCENTRICITY":0.0001886,"INCLINATION":87.8928,"RA_OF_ASC_NODE":298.0416,"ARG_OF_PERICENTER":86.3273,"MEAN_ANOMALY":273.8073,"EPHEMERIS_TYPE":0,"CLASSIFICATION_TYPE":"U","NORAD_CAT_ID":49279,"ELEMENT_SET_NO":999,"REV_AT_EPOCH":22209,"BSTAR":-0.00050277,"MEAN_MOTION_DOT":-1.74e-06,"MEAN_MOTION_DDOT":0.0},{"OBJECT_NAME":"ONEWEB-0347","OBJECT_ID":"2021-090B","EPOCH":"2026-05-06T09:04:57.025920","MEAN_MOTION":13.20774368,"ECCENTRICITY":0.0002021,"INCLINATION":87.9153,"RA_OF_ASC_NODE":282.7813,"ARG_OF_PERICENTER":92.6516,"MEAN_ANOMALY":267.4849,"EPHEMERIS_TYPE":0,"CLASSIFICATION_TYPE":"U","NORAD_CAT_ID":49280,"ELEMENT_SET_NO":999,"REV_AT_EPOCH":22552,"BSTAR":0.0002769,"MEAN_MOTION_DOT":1.26e-06,"MEAN_MOTION_DDOT":0.0}]